[{"OBJECT_NAME":"ONEWEB-0503","OBJECT_ID":"2022-138J","EPOCH":"2026-03-07T05:50:06.067392","MEAN_MOTION":13.19726602,"ECCENTRICITY":0.00014412,"INCLINATION":87.924,"RA_OF_ASC_NODE":325.2625,"ARG_OF_PERICENTER":74.8511,"MEAN_ANOMALY":285.2781,"EPHEMERIS_TYPE":0,"CLASSIFICATION_TYPE":"U","NORAD_CAT_ID":54121,"ELEMENT_SET_NO":999,"REV_AT_EPOCH":16337,"BSTAR":-0.00011270986,"MEAN_MOTION_DOT":-3.2e-7,"MEAN_MOTION_DDOT":0},{"OBJECT_NAME":"ONEWEB-0504","OBJECT_ID":"2022-138K","EPOCH":"2026-03-07T05:31:54.741216","MEAN_MOTION":13.19726726,"ECCENTRICITY":0.000149,"INCLINATION":87.9236,"RA_OF_ASC_NODE":325.2754,"ARG_OF_PERICENTER":88.443,"MEAN_ANOMALY":271.6873,"EPHEMERIS_TYPE":0,"CLASSIFICATION_TYPE":"U","NORAD_CAT_ID":54122,"ELEMENT_SET_NO":999,"REV_AT_EPOCH":16338,"BSTAR":5.7267874e-5,"MEAN_MOTION_DOT":3.6e-7,"MEAN_MOTION_DDOT":0},{"OBJECT_NAME":"ONEWEB-0505","OBJECT_ID":"2022-138L","EPOCH":"2026-03-07T05:27:21.675744","MEAN_MOTION":13.19725981,"ECCENTRICITY":0.0001545,"INCLINATION":87.9244,"RA_OF_ASC_NODE":325.2724,"ARG_OF_PERICENTER":97.0214,"MEAN_ANOMALY":263.1094,"EPHEMERIS_TYPE":0,"CLASSIFICATION_TYPE":"U","NORAD_CAT_ID":54123,"ELEMENT_SET_NO":999,"REV_AT_EPOCH":16336,"BSTAR":9.9996304e-5,"MEAN_MOTION_DOT":5.3e-7,"MEAN_MOTION_DDOT":0},{"OBJECT_NAME":"ONEWEB-0506","OBJECT_ID":"2022-138M","EPOCH":"2026-03-07T06:40:08.685984","MEAN_MOTION":13.19727028,"ECCENTRICITY":0.0001551,"INCLINATION":87.9244,"RA_OF_ASC_NODE":325.2595,"ARG_OF_PERICENTER":89.95,"MEAN_ANOMALY":270.1811,"EPHEMERIS_TYPE":0,"CLASSIFICATION_TYPE":"U","NORAD_CAT_ID":54124,"ELEMENT_SET_NO":999,"REV_AT_EPOCH":16336,"BSTAR":0.00022859079,"MEAN_MOTION_DOT":1.04e-6,"MEAN_MOTION_DDOT":0},{"OBJECT_NAME":"ONEWEB-0507","OBJECT_ID":"2022-138N","EPOCH":"2026-03-07T05:20:31.515072","MEAN_MOTION":13.19727056,"ECCENTRICITY":0.00016481,"INCLINATION":87.9231,"RA_OF_ASC_NODE":325.2926,"ARG_OF_PERICENTER":87.1398,"MEAN_ANOMALY":272.9923,"EPHEMERIS_TYPE":0,"CLASSIFICATION_TYPE":"U","NORAD_CAT_ID":54125,"ELEMENT_SET_NO":999,"REV_AT_EPOCH":16340,"BSTAR":7.8830573e-5,"MEAN_MOTION_DOT":4.4e-7,"MEAN_MOTION_DDOT":0},{"OBJECT_NAME":"ONEWEB-0508","OBJECT_ID":"2022-138P","EPOCH":"2026-03-07T05:15:58.674240","MEAN_MOTION":13.19723748,"ECCENTRICITY":0.00018148,"INCLINATION":87.9234,"RA_OF_ASC_NODE":325.2921,"ARG_OF_PERICENTER":95.3733,"MEAN_ANOMALY":264.7607,"EPHEMERIS_TYPE":0,"CLASSIFICATION_TYPE":"U","NORAD_CAT_ID":54126,"ELEMENT_SET_NO":999,"REV_AT_EPOCH":16338,"BSTAR":0.00023947996,"MEAN_MOTION_DOT":1.09e-6,"MEAN_MOTION_DDOT":0},{"OBJECT_NAME":"ONEWEB-0509","OBJECT_ID":"2022-138Q","EPOCH":"2026-03-07T06:28:46.039584","MEAN_MOTION":13.19724639,"ECCENTRICITY":0.0001685,"INCLINATION":87.9242,"RA_OF_ASC_NODE":325.2618,"ARG_OF_PERICENTER":84.348,"MEAN_ANOMALY":275.7845,"EPHEMERIS_TYPE":0,"CLASSIFICATION_TYPE":"U","NORAD_CAT_ID":54127,"ELEMENT_SET_NO":999,"REV_AT_EPOCH":16336,"BSTAR":0.0001475456,"MEAN_MOTION_DOT":7.2e-7,"MEAN_MOTION_DDOT":0},{"OBJECT_NAME":"ONEWEB-0510","OBJECT_ID":"2022-138R","EPOCH":"2026-03-07T03:54:29.174688","MEAN_MOTION":13.20769331,"ECCENTRICITY":0.00016772,"INCLINATION":87.9173,"RA_OF_ASC_NODE":294.8066,"ARG_OF_PERICENTER":70.0003,"MEAN_ANOMALY":290.1311,"EPHEMERIS_TYPE":0,"CLASSIFICATION_TYPE":"U","NORAD_CAT_ID":54128,"ELEMENT_SET_NO":999,"REV_AT_EPOCH":16581,"BSTAR":-7.376708e-6,"MEAN_MOTION_DOT":1.0e-7,"MEAN_MOTION_DDOT":0},{"OBJECT_NAME":"ONEWEB-0511","OBJECT_ID":"2022-138S","EPOCH":"2026-03-07T06:24:12.883392","MEAN_MOTION":13.1972732,"ECCENTRICITY":0.00014264,"INCLINATION":87.9242,"RA_OF_ASC_NODE":325.2666,"ARG_OF_PERICENTER":77.6804,"MEAN_ANOMALY":282.4489,"EPHEMERIS_TYPE":0,"CLASSIFICATION_TYPE":"U","NORAD_CAT_ID":54129,"ELEMENT_SET_NO":999,"REV_AT_EPOCH":16339,"BSTAR":0.00012376927,"MEAN_MOTION_DOT":6.2e-7,"MEAN_MOTION_DDOT":0},{"OBJECT_NAME":"ONEWEB-0512","OBJECT_ID":"2022-138T","EPOCH":"2026-03-07T06:12:49.954464","MEAN_MOTION":13.1972446,"ECCENTRICITY":0.00014739,"INCLINATION":87.9233,"RA_OF_ASC_NODE":325.282,"ARG_OF_PERICENTER":91.3085,"MEAN_ANOMALY":268.8217,"EPHEMERIS_TYPE":0,"CLASSIFICATION_TYPE":"U","NORAD_CAT_ID":54130,"ELEMENT_SET_NO":999,"REV_AT_EPOCH":16336,"BSTAR":0.00033650136,"MEAN_MOTION_DOT":1.48e-6,"MEAN_MOTION_DDOT":0},{"OBJECT_NAME":"ONEWEB-0513","OBJECT_ID":"2022-138U","EPOCH":"2026-03-07T05:31:48.758016","MEAN_MOTION":13.2026272,"ECCENTRICITY":0.00010643,"INCLINATION":87.9248,"RA_OF_ASC_NODE":325.243,"ARG_OF_PERICENTER":112.3271,"MEAN_ANOMALY":247.7975,"EPHEMERIS_TYPE":0,"CLASSIFICATION_TYPE":"U","NORAD_CAT_ID":54131,"ELEMENT_SET_NO":999,"REV_AT_EPOCH":16326,"BSTAR":9.4398112e-5,"MEAN_MOTION_DOT":5.1e-7,"MEAN_MOTION_DDOT":0},{"OBJECT_NAME":"ONEWEB-0514","OBJECT_ID":"2022-138V","EPOCH":"2026-03-07T06:35:34.977696","MEAN_MOTION":13.19727086,"ECCENTRICITY":0.00016454,"INCLINATION":87.9235,"RA_OF_ASC_NODE":325.2681,"ARG_OF_PERICENTER":75.2668,"MEAN_ANOMALY":284.8647,"EPHEMERIS_TYPE":0,"CLASSIFICATION_TYPE":"U","NORAD_CAT_ID":54132,"ELEMENT_SET_NO":999,"REV_AT_EPOCH":16338,"BSTAR":0.00023788401,"MEAN_MOTION_DOT":1.08e-6,"MEAN_MOTION_DDOT":0},{"OBJECT_NAME":"ONEWEB-0515","OBJECT_ID":"2022-138W","EPOCH":"2026-03-07T03:36:18.323712","MEAN_MOTION":13.20773083,"ECCENTRICITY":0.000236,"INCLINATION":87.9177,"RA_OF_ASC_NODE":294.7976,"ARG_OF_PERICENTER":74.4923,"MEAN_ANOMALY":285.647,"EPHEMERIS_TYPE":0,"CLASSIFICATION_TYPE":"U","NORAD_CAT_ID":54133,"ELEMENT_SET_NO":999,"REV_AT_EPOCH":16583,"BSTAR":5.5652307e-5,"MEAN_MOTION_DOT":3.6e-7,"MEAN_MOTION_DDOT":0},{"OBJECT_NAME":"ONEWEB-0516","OBJECT_ID":"2022-138X","EPOCH":"2026-03-07T05:59:12.082560","MEAN_MOTION":13.1972598,"ECCENTRICITY":0.0001738,"INCLINATION":87.9229,"RA_OF_ASC_NODE":325.2854,"ARG_OF_PERICENTER":85.6772,"MEAN_ANOMALY":274.4559,"EPHEMERIS_TYPE":0,"CLASSIFICATION_TYPE":"U","NORAD_CAT_ID":54134,"ELEMENT_SET_NO":999,"REV_AT_EPOCH":16338,"BSTAR":0.00010208672,"MEAN_MOTION_DOT":5.4e-7,"MEAN_MOTION_DDOT":0},{"OBJECT_NAME":"ONEWEB-0517","OBJECT_ID":"2022-138Y","EPOCH":"2026-03-07T05:29:37.525920","MEAN_MOTION":13.19726919,"ECCENTRICITY":0.00013985,"INCLINATION":87.9237,"RA_OF_ASC_NODE":325.2776,"ARG_OF_PERICENTER":75.5637,"MEAN_ANOMALY":284.5651,"EPHEMERIS_TYPE":0,"CLASSIFICATION_TYPE":"U","NORAD_CAT_ID":54135,"ELEMENT_SET_NO":999,"REV_AT_EPOCH":16338,"BSTAR":6.4109571e-5,"MEAN_MOTION_DOT":3.9e-7,"MEAN_MOTION_DDOT":0},{"OBJECT_NAME":"ONEWEB-0518","OBJECT_ID":"2022-138Z","EPOCH":"2026-03-07T05:56:54.840480","MEAN_MOTION":13.19724169,"ECCENTRICITY":0.00016579,"INCLINATION":87.923,"RA_OF_ASC_NODE":325.2865,"ARG_OF_PERICENTER":84.7659,"MEAN_ANOMALY":275.3662,"EPHEMERIS_TYPE":0,"CLASSIFICATION_TYPE":"U","NORAD_CAT_ID":54136,"ELEMENT_SET_NO":999,"REV_AT_EPOCH":16338,"BSTAR":8.426144e-6,"MEAN_MOTION_DOT":1.6e-7,"MEAN_MOTION_DDOT":0},{"OBJECT_NAME":"ONEWEB-0519","OBJECT_ID":"2022-138AA","EPOCH":"2026-03-07T06:33:19.278720","MEAN_MOTION":13.19726964,"ECCENTRICITY":0.00014794,"INCLINATION":87.9242,"RA_OF_ASC_NODE":325.2613,"ARG_OF_PERICENTER":76.7541,"MEAN_ANOMALY":283.3757,"EPHEMERIS_TYPE":0,"CLASSIFICATION_TYPE":"U","NORAD_CAT_ID":54137,"ELEMENT_SET_NO":999,"REV_AT_EPOCH":16339,"BSTAR":0.00025372041,"MEAN_MOTION_DOT":1.15e-6,"MEAN_MOTION_DDOT":0}]
