ONEWEB-0503             
1 54121U 22138J   26066.24312578 -.00000032  00000+0 -11271-3 0  9992
2 54121  87.9240 325.2625 0001441  74.8511 285.2781 13.19726602163376
ONEWEB-0504             
1 54122U 22138K   26066.23049469  .00000036  00000+0  57268-4 0  9997
2 54122  87.9236 325.2754 0001490  88.4430 271.6873 13.19726726163389
ONEWEB-0505             
1 54123U 22138L   26066.22733421  .00000053  00000+0  99996-4 0  9998
2 54123  87.9244 325.2724 0001545  97.0214 263.1094 13.19725981163364
ONEWEB-0506             
1 54124U 22138M   26066.27787831  .00000104  00000+0  22859-3 0  9998
2 54124  87.9244 325.2595 0001551  89.9500 270.1811 13.19727028163365
ONEWEB-0507             
1 54125U 22138N   26066.22258698  .00000044  00000+0  78831-4 0  9993
2 54125  87.9231 325.2926 0001648  87.1398 272.9923 13.19727056163402
ONEWEB-0508             
1 54126U 22138P   26066.21942910  .00000109  00000+0  23948-3 0  9990
2 54126  87.9234 325.2921 0001814  95.3733 264.7607 13.19723748163389
ONEWEB-0509             
1 54127U 22138Q   26066.26997731  .00000072  00000+0  14755-3 0  9992
2 54127  87.9242 325.2618 0001685  84.3480 275.7845 13.19724639163369
ONEWEB-0510             
1 54128U 22138R   26066.16283767  .00000010  00000+0 -73767-5 0  9992
2 54128  87.9173 294.8066 0001677  70.0003 290.1311 13.20769331165816
ONEWEB-0511             
1 54129U 22138S   26066.26681578  .00000062  00000+0  12377-3 0  9990
2 54129  87.9242 325.2666 0001426  77.6804 282.4489 13.19727320163394
ONEWEB-0512             
1 54130U 22138T   26066.25891151  .00000148  00000+0  33650-3 0  9993
2 54130  87.9233 325.2820 0001473  91.3085 268.8217 13.19724460163360
ONEWEB-0513             
1 54131U 22138U   26066.23042544  .00000051  00000+0  94398-4 0  9996
2 54131  87.9248 325.2430 0001064 112.3271 247.7975 13.20262720163265
ONEWEB-0514             
1 54132U 22138V   26066.27471039  .00000108  00000+0  23788-3 0  9993
2 54132  87.9235 325.2681 0001645  75.2668 284.8647 13.19727086163382
ONEWEB-0515             
1 54133U 22138W   26066.15021208  .00000036  00000+0  55652-4 0  9996
2 54133  87.9177 294.7976 0002360  74.4923 285.6470 13.20773083165830
ONEWEB-0516             
1 54134U 22138X   26066.24944540  .00000054  00000+0  10209-3 0  9998
2 54134  87.9229 325.2854 0001738  85.6772 274.4559 13.19725980163381
ONEWEB-0517             
1 54135U 22138Y   26066.22890655  .00000039  00000+0  64110-4 0  9998
2 54135  87.9237 325.2776 0001398  75.5637 284.5651 13.19726919163382
ONEWEB-0518             
1 54136U 22138Z   26066.24785695  .00000016  00000+0  84261-5 0  9993
2 54136  87.9230 325.2865 0001657  84.7659 275.3662 13.19724169163384
ONEWEB-0519             
1 54137U 22138AA  26066.27313980  .00000115  00000+0  25372-3 0  9997
2 54137  87.9242 325.2613 0001479  76.7541 283.3757 13.19726964163392
